{
  "type": "FeatureCollection",
  "features": [
    {
      "type": "Feature",
      "properties": {
        "norad_id": 31307,
        "name": "GALAXY 17 (G-17)",
        "group": "intelsat",
        "lat": 1.1220005260987165,
        "lon": 108.03998021122042,
        "alt_km": 35804.47324509773,
        "timestamp": "2025-12-19T06:59:43.571496+00:00",
        "meta_object_name": "GALAXY 17 (G-17)",
        "meta_object_id": "2007-016B",
        "meta_epoch": "2025-12-18T19:44:25.082592",
        "meta_mean_motion": 1.00272251,
        "meta_eccentricity": 0.00054677,
        "meta_inclination": 2.5147,
        "meta_ra_of_asc_node": 82.2187,
        "meta_arg_of_pericenter": 169.2663,
        "meta_mean_anomaly": 47.3321,
        "meta_ephemeris_type": 0,
        "meta_classification_type": "U",
        "meta_norad_cat_id": 31307,
        "meta_element_set_no": 999,
        "meta_rev_at_epoch": 6799,
        "meta_bstar": 0,
        "meta_mean_motion_dot": -1.84e-06,
        "meta_mean_motion_ddot": 0,
        "tle_line1": "1 31307U 07016B   25352.82251253 -.00000184  00000+0  00000+0 0  9995",
        "tle_line2": "2 31307   2.5147  82.2187 0005467 169.2663  47.3321  1.00272251 67999"
      },
      "geometry": {
        "type": "Point",
        "coordinates": [
          108.03998021122042,
          1.1220005260987165
        ]
      }
    },
    {
      "type": "Feature",
      "properties": {
        "norad_id": 31862,
        "name": "DIRECTV 10",
        "group": "intelsat",
        "lat": 0.019747047093457173,
        "lon": 90.25349250086927,
        "alt_km": 35786.68540212221,
        "timestamp": "2025-12-19T06:59:43.571508+00:00",
        "meta_object_name": "DIRECTV 10",
        "meta_object_id": "2007-032A",
        "meta_epoch": "2025-12-18T23:04:43.398624",
        "meta_mean_motion": 1.00270613,
        "meta_eccentricity": 2.114e-05,
        "meta_inclination": 0.0079,
        "meta_ra_of_asc_node": 54.2864,
        "meta_arg_of_pericenter": 143.5711,
        "meta_mean_anomaly": 133.3348,
        "meta_ephemeris_type": 0,
        "meta_classification_type": "U",
        "meta_norad_cat_id": 31862,
        "meta_element_set_no": 999,
        "meta_rev_at_epoch": 4378,
        "meta_bstar": 0,
        "meta_mean_motion_dot": -7.8e-07,
        "meta_mean_motion_ddot": 0,
        "tle_line1": "1 31862U 07032A   25352.96161341 -.00000078  00000+0  00000+0 0  9994",
        "tle_line2": "2 31862   0.0079  54.2864 0000211 143.5711 133.3348  1.00270613 43780"
      },
      "geometry": {
        "type": "Point",
        "coordinates": [
          90.25349250086927,
          0.019747047093457173
        ]
      }
    },
    {
      "type": "Feature",
      "properties": {
        "norad_id": 32253,
        "name": "INTELSAT 11 (IS-11)",
        "group": "intelsat",
        "lat": -2.3877776744206463,
        "lon": 30.030077531495664,
        "alt_km": 36160.241742093676,
        "timestamp": "2025-12-19T06:59:43.571520+00:00",
        "meta_object_name": "INTELSAT 11 (IS-11)",
        "meta_object_id": "2007-044B",
        "meta_epoch": "2025-12-18T14:14:43.715328",
        "meta_mean_motion": 0.99051433,
        "meta_eccentricity": 0.00085662,
        "meta_inclination": 3.0947,
        "meta_ra_of_asc_node": 80.9124,
        "meta_arg_of_pericenter": 168.1752,
        "meta_mean_anomaly": 251.9743,
        "meta_ephemeris_type": 0,
        "meta_classification_type": "U",
        "meta_norad_cat_id": 32253,
        "meta_element_set_no": 999,
        "meta_rev_at_epoch": 6666,
        "meta_bstar": 0,
        "meta_mean_motion_dot": -1e-07,
        "meta_mean_motion_ddot": 0,
        "tle_line1": "1 32253U 07044B   25352.59356152 -.00000010  00000+0  00000+0 0  9993",
        "tle_line2": "2 32253   3.0947  80.9124 0008566 168.1752 251.9743  0.99051433 66668"
      },
      "geometry": {
        "type": "Point",
        "coordinates": [
          30.030077531495664,
          -2.3877776744206463
        ]
      }
    },
    {
      "type": "Feature",
      "properties": {
        "norad_id": 32388,
        "name": "HORIZONS-2",
        "group": "intelsat",
        "lat": 1.2900828171531382,
        "lon": 119.24131508314346,
        "alt_km": 35803.51994729073,
        "timestamp": "2025-12-19T06:59:43.571531+00:00",
        "meta_object_name": "HORIZONS-2",
        "meta_object_id": "2007-063B",
        "meta_epoch": "2025-12-18T19:47:32.284608",
        "meta_mean_motion": 1.00272348,
        "meta_eccentricity": 0.00045697,
        "meta_inclination": 2.1366,
        "meta_ra_of_asc_node": 82.8971,
        "meta_arg_of_pericenter": 192.688,
        "meta_mean_anomaly": 35.1967,
        "meta_ephemeris_type": 0,
        "meta_classification_type": "U",
        "meta_norad_cat_id": 32388,
        "meta_element_set_no": 999,
        "meta_rev_at_epoch": 6600,
        "meta_bstar": 0,
        "meta_mean_motion_dot": -2.3e-06,
        "meta_mean_motion_ddot": 0,
        "tle_line1": "1 32388U 07063B   25352.82467922 -.00000230  00000+0  00000+0 0  9991",
        "tle_line2": "2 32388   2.1366  82.8971 0004569 192.6880  35.1967  1.00272348 66007"
      },
      "geometry": {
        "type": "Point",
        "coordinates": [
          119.24131508314346,
          1.2900828171531382
        ]
      }
    },
    {
      "type": "Feature",
      "properties": {
        "norad_id": 32729,
        "name": "DIRECTV 11",
        "group": "intelsat",
        "lat": 0.008492101152737911,
        "lon": 93.874903434749,
        "alt_km": 35785.521819668815,
        "timestamp": "2025-12-19T06:59:43.571543+00:00",
        "meta_object_name": "DIRECTV 11",
        "meta_object_id": "2008-013A",
        "meta_epoch": "2025-12-18T14:32:04.553664",
        "meta_mean_motion": 1.00272086,
        "meta_eccentricity": 5.406e-05,
        "meta_inclination": 0.0315,
        "meta_ra_of_asc_node": 212.3595,
        "meta_arg_of_pericenter": 318.9842,
        "meta_mean_anomaly": 34.9588,
        "meta_ephemeris_type": 0,
        "meta_classification_type": "U",
        "meta_norad_cat_id": 32729,
        "meta_element_set_no": 999,
        "meta_rev_at_epoch": 4378,
        "meta_bstar": 0,
        "meta_mean_motion_dot": -1.01e-06,
        "meta_mean_motion_ddot": 0,
        "tle_line1": "1 32729U 08013A   25352.60560826 -.00000101  00000+0  00000+0 0  9996",
        "tle_line2": "2 32729   0.0315 212.3595 0000540 318.9842  34.9588  1.00272086 43780"
      },
      "geometry": {
        "type": "Point",
        "coordinates": [
          93.874903434749,
          0.008492101152737911
        ]
      }
    },
    {
      "type": "Feature",
      "properties": {
        "norad_id": 32951,
        "name": "GALAXY 18 (G-18)",
        "group": "intelsat",
        "lat": 0.03368403795096272,
        "lon": 70.06835483910575,
        "alt_km": 35797.39634932601,
        "timestamp": "2025-12-19T06:59:43.571555+00:00",
        "meta_object_name": "GALAXY 18 (G-18)",
        "meta_object_id": "2008-024A",
        "meta_epoch": "2025-12-18T22:58:58.948608",
        "meta_mean_motion": 1.0027081,
        "meta_eccentricity": 0.0002816,
        "meta_inclination": 0.0168,
        "meta_ra_of_asc_node": 26.3678,
        "meta_arg_of_pericenter": 245.7971,
        "meta_mean_anomaly": 37.3884,
        "meta_ephemeris_type": 0,
        "meta_classification_type": "U",
        "meta_norad_cat_id": 32951,
        "meta_element_set_no": 999,
        "meta_rev_at_epoch": 4404,
        "meta_bstar": 0,
        "meta_mean_motion_dot": 5e-07,
        "meta_mean_motion_ddot": 0,
        "tle_line1": "1 32951U 08024A   25352.95762672  .00000050  00000+0  00000+0 0  9998",
        "tle_line2": "2 32951   0.0168  26.3678 0002816 245.7971  37.3884  1.00270810 44045"
      },
      "geometry": {
        "type": "Point",
        "coordinates": [
          70.06835483910575,
          0.03368403795096272
        ]
      }
    },
    {
      "type": "Feature",
      "properties": {
        "norad_id": 33153,
        "name": "INTELSAT 25 (IS-25)",
        "group": "intelsat",
        "lat": 2.2082105447609983,
        "lon": 161.49981278068284,
        "alt_km": 35792.14891986115,
        "timestamp": "2025-12-19T06:59:43.571566+00:00",
        "meta_object_name": "INTELSAT 25 (IS-25)",
        "meta_object_id": "2008-034A",
        "meta_epoch": "2025-12-18T19:59:38.625216",
        "meta_mean_motion": 1.00270567,
        "meta_eccentricity": 0.00047972,
        "meta_inclination": 2.2426,
        "meta_ra_of_asc_node": 82.5851,
        "meta_arg_of_pericenter": 186.0654,
        "meta_mean_anomaly": 87.447,
        "meta_ephemeris_type": 0,
        "meta_classification_type": "U",
        "meta_norad_cat_id": 33153,
        "meta_element_set_no": 999,
        "meta_rev_at_epoch": 6388,
        "meta_bstar": 0,
        "meta_mean_motion_dot": -2.01e-06,
        "meta_mean_motion_ddot": 0,
        "tle_line1": "1 33153U 08034A   25352.83308594 -.00000201  00000+0  00000+0 0  9999",
        "tle_line2": "2 33153   2.2426  82.5851 0004797 186.0654  87.4470  1.00270567 63882"
      },
      "geometry": {
        "type": "Point",
        "coordinates": [
          161.49981278068284,
          2.2082105447609983
        ]
      }
    }
  ]
}